#dP2023  9 15  6  0  0.00000000      96 __u+U ITR00 EXT  IAC
## 2279 453600.00000000   900.00000000 60202 0.2500000000000
+  118   C06C07C08C09C10C11C12C13C14C16C19C20C21C22C23C24C25
+        C26C27C28C29C30C32C33C34C35C36C37C38C39C40C41C42C43
+        C44C45C46E02E03E04E05E07E08E09E10E11E12E13E14E15E18
+        E19E21E24E25E26E27E30E31E33E34E36G01G02G03G04G05G06
+        G07G08G09G10G11G12G13G14G15G16G17G18G19G20G21G22G23
+        G24G25G26G27G28G29G30G31G32J02J03J04R01R02R03R04R05
+        R07R08R09R11R12R13R14R15R16R17R18R19R20R21R22R24  0
++        11 11  9 15 11 10  8  9  9 11  9 10  8  8  9  9  7
++        10 10 10  9  8  9  9  9  9  9  9 14 10 11  9 10  8
++         7 12  9  9  7  8  7  8  8  8  8  8  7 10  7 11  8
++         7  7  9  9  9  8  8  7  9  9  7  8  9  8  7  8  8
++         7  8  6  8  7  8  8  7  8  8  7  7  6  8  8  6  8
++         7  7  7  7  8  8  8  8  8 10 10 10 10 10  7  9  9
++         9  8  8  9  9  9  8  7  7  7  7  9  8  8  7  8  0
%c M  cc GPS ccc cccc cccc cccc cccc ccccc ccccc ccccc ccccc
%c cc cc ccc ccc cccc cccc cccc cccc ccccc ccccc ccccc ccccc
%f  0.0000000  0.000000000  0.00000000000  0.000000000000000
%f  0.0000000  0.000000000  0.00000000000  0.000000000000000
%i    0    0    0    0      0      0      0      0         0
%i    0    0    0    0      0      0      0      0         0
/* IAC                                ULTRA-RAPID PREDICTION
/* S/V CLOCKS ARE ALIGNED TO GNSS TIME                      
/* G:C1WC2W R:C1PC2P E:C1XC5X C:C2IC6I J:C1CC2S             
/* PCV:IGS20_2274 OL/AL:FES2004  NONE     YN ORB:CoN CLK:CoN
*  2023 09 16  5  0  0.00000000
PC06 -10605.980878  40906.348369   2343.545436     37.264603
PC07  -5420.933295  28236.517039 -30702.155849    -11.911977
PC08 -18843.778986  24023.189017  28951.095763    343.156578
PC09  -7325.331060  41494.573555  -4936.025342    160.349269
PC10   2678.414231  30813.484664 -28109.089514   -179.906148
PC11  11982.194910  18210.959470  17474.881078    834.520460
PC12   1636.788296  27832.217946    977.388170    936.383099
PC13 -11151.660975  25273.336189  31890.521227    352.567052
PC14  22848.548715  15189.768787   4940.539010    414.507488
PC16 -13554.263830  39470.585162   7324.545411    -82.263873
PC19 -25844.673486  -9587.788496   4428.368728   -970.410677
PC20 -17633.857693 -17990.989841 -12034.260952    279.844468
PC21  -2068.335633  16189.967864  22636.513716   -970.801852
PC22 -19650.828277   4750.824287  19233.686120   -305.634847
PC23  24399.981835 -13117.384676  -3386.716351   -870.571801
PC24   5458.853246  15748.083013 -22386.475543    397.088456
PC25  21545.969861    603.325827 -17743.644079    212.281508
PC26 -12076.469373  20765.018224 -14186.288395   -178.347074
PC27   3807.861797 -26662.698069   7278.430135    199.880405
PC28  13131.583597 -14625.218603  19818.231519    149.977630
PC29 -15842.947928  -7921.157438 -21569.500178    175.153947
PC30  -8620.097945 -24893.233583  -9192.412589     -4.990424
PC32   2042.910705 -16177.674227 -22642.229364   -528.595269
PC33  25879.471628   9492.902126  -4304.856241   -967.686398
PC34   9393.695871  24131.918563  10407.038134    260.504210
PC35 -12691.357869  15025.869540 -19818.872094    545.512559
PC36 -21052.992350  -1841.413425  18245.740605   -223.952197
PC37  13340.747766 -20464.255557  13530.162943   -828.674766
PC38 -25329.371180  25389.229320  22047.243775    105.080505
PC39 -14249.779271  37686.567889  12884.203702     -4.807014
PC40  -8976.532716  22558.870494 -34408.224355    -36.672499
PC41  20148.666988  -4290.911460 -18777.373747   -878.209206
PC42  16376.499017  18283.871650  13288.089209   -546.181888
PC43  15806.135886   8936.616471  21185.862651     39.936675
PC44  -2992.876763  26739.754751  -7459.037214    232.859584
PC45 -24278.302433  13425.242640   2890.136887    -26.040477
PC46  -6599.500857 -14964.558520  22615.191115    -84.626439
PE02  23426.647073 -10392.938934  14827.246420     63.073357
PE03  11853.906441 -12830.023463 -23906.143436    -56.357217
PE04   3822.075545  25721.727438  14140.404703   -213.120104
PE05  20678.360972   7576.094982 -19779.991846     18.796052
PE07 -17237.264485 -23783.002792   3707.548788    -75.170794
PE08  -3540.728336 -25530.646454 -14569.699236   -146.944051
PE09  17172.545677  23833.015511  -3585.895145   -158.047745
PE10   -148.905772  23724.119912  17682.552288   -564.087565
PE11   8145.186036  16315.644955  23304.428337   2936.749216
PE12  -7654.274688  26833.599071   9880.422243   -699.458914
PE13  -7574.696786 -16891.631172 -23096.974331    -19.647731
PE14  -1333.300292  22769.752353 -13553.933785    341.696860
PE15   7952.166559 -26882.273445  -9506.199924    -53.611426
PE18 -12143.812195 -28348.805639   1605.500780    536.277840
PE19 -13468.366208  10260.224218  24280.965609  -1621.914277
PE21 -29480.005008  -1278.039941   2341.061105   -552.886572
PE24  18171.854247  13202.418285 -19296.052949   -324.092552
PE25  29442.688855   1504.244213  -2669.154225     -1.879519
PE26 -18793.046439   3494.876237 -22595.006054    223.828014
PE27 -18728.142544 -12856.759485  18981.405295   -151.114187
PE30   3471.128720 -16739.571551  24162.441878   -503.820353
PE31  -2914.923772  16720.740885 -24236.962388     -5.201897
PE33 -18777.737633  20559.530045 -10020.110846     -0.478031
PE34  18563.275574 -21049.763555   9429.404197    -67.290795
PE36  18446.616757  -2838.529442  22975.575046   -116.815031
PG01  14511.375896 -21934.666340   1616.703864    165.389114
PG02  16408.214344 -18461.831906  10033.036825   -553.421455
PG03  14391.837546 -12447.200775 -18628.916367   -132.771425
PG04   4975.239249 -18229.971890 -18605.583176    157.314326
PG05 -25202.478731   5517.619251   6344.817431   -142.898363
PG06 -11421.672645  -9171.688475 -22088.302787    549.393909
PG07   2342.544678 -22898.456214  13292.870315     66.029593
PG08  12559.851594  -8692.755285  21643.542061   -142.494238
PG09      0.000000      0.000000      0.000000    -58.510319
PG10  17768.268120  11173.312789  16650.236759    -53.588938
PG11 -18224.423370   4214.836678 -18820.938256   -370.951423
PG12 -18218.618236  10258.148529 -16610.547141   -425.273656
PG13 -15990.312718  -1190.773520  21018.036507    573.061912
PG14 -14280.709062 -13411.318735  18032.813764    186.261074
PG15 -10961.967560  11181.693365  20960.757735     77.955444
PG16  26693.229396   1040.925407   1937.837335   -453.501887
PG17 -13181.325637 -22799.548739  -2485.422988    723.742644
PG18  -1550.586644  21939.912253  14762.350973   -418.774144
PG19 -16294.970905 -18154.855531 -11108.236158    372.121507
PG20 -25913.830116    611.982932  -5271.850417    411.652078
PG21  17001.874748 -15867.150163  12453.591856    148.808714
PG22 -19866.177404 -11396.658103  13667.806739    120.935136
PG23   4635.333424  14601.375865  21720.793361     69.032622
PG24 -14977.934584  20466.972058   6733.056730   -320.713713
PG25  -3737.249052  15422.956588 -21586.376289    467.986859
PG26  24812.246493   4826.336004  -8840.344930    228.266924
PG27  17904.709137   4766.514674  18929.584425    -40.212532
PG28  10980.298854  11195.556178 -21460.014605    -10.444692
PG29   1891.287446  23404.983946 -12357.205150   -609.329394
PG30  -6015.265826 -17503.060752  19080.203420   -487.377244
PG31  16746.304177    906.860195 -20870.348775   -223.432839
PG32  16666.681811  19814.401650  -6200.886975   -558.617910
PJ02 -32653.425776  15387.787698 -17127.510966     -4.093319
PJ03 -23177.687462  31306.064682 -11459.722528     -2.855685
PJ04 -26433.209271  26673.172416  25064.393267     70.634612
PR01  14508.273470  17321.766522  11824.782541     65.735959
PR02  21244.090482  12828.227301  -6016.088700    -22.422041
PR03  15982.537616    352.838699 -19859.430567     85.300528
PR04   1919.716353 -11743.331141 -22537.790611    202.991166
PR05 -13001.369771 -17681.381981 -12971.047427    119.085094
PR07 -15361.754297    399.795558  20375.749083     64.761554
PR08  -1715.884823  12004.294241  22498.241782    -72.578473
PR09 -19392.262310   -198.711503  16637.316581    142.494588
PR11 -15515.371991  14264.804369 -14367.522595   -164.756883
PR12   3465.636044  10493.998626 -22959.692069     31.322495
PR13  17875.943715   1605.607903 -18134.731540    -39.258733
PR14  23521.553119  -9794.359776   -949.330643     25.264517
PR15  14459.144842 -14278.801827  15437.471044     86.160773
PR16  -3191.443313 -10471.513169  23052.308911     18.733222
PR17  10778.027313 -11102.629336  20303.951442     17.618892
PR18   6761.791308 -23375.095407   7602.252394    102.145884
PR19    704.151337 -24321.341193  -7682.571524   -247.422468
PR20  -8387.758519  -9328.760833 -22195.986072   -100.117827
PR21 -10687.049300  11917.695699 -19845.834526    -38.376189
PR22  -7212.108174  23579.015437  -6518.413049     84.326734
PR24   9366.843640   8438.990136  22187.224859    -24.556295
EOF
